ONEWEB-0134             
1 47280U 20100Y   23262.82700133 -.00000335  00000+0 -96617-3 0  9997
2 47280  87.9068 189.7270 0002216  69.0786 291.0579 13.12442888133362
ONEWEB-0135             
1 47281U 20100Z   23262.79524026  .00000377  00000+0  10135-2 0  9993
2 47281  87.9069 189.7358 0002030  71.9927 288.1423 13.12442654133382
ONEWEB-0136             
1 47282U 20100AA  23263.35006688 -.00000089  00000+0 -28179-3 0  9996
2 47282  87.9001 189.6458 0002368  62.2319 297.9049 13.12444177133385
ONEWEB-0137             
1 47283U 20100AB  23263.30984419  .00000196  00000+0  50815-3 0  9998
2 47283  87.9068 189.6394 0001836  71.0113 289.1214 13.12444826133284
ONEWEB-0138             
1 47284U 20100AC  23263.36277474 -.00000336  00000+0 -96888-3 0  9999
2 47284  87.9068 189.6396 0002007  72.9395 287.1953 13.12442042133376
ONEWEB-0139             
1 47285U 20100AD  23262.80159069  .00000243  00000+0  63930-3 0  9994
2 47285  87.9010 189.7599 0002100  73.0245 287.1114 13.12443634133377
ONEWEB-0140             
1 47286U 20100AE  23262.74652836 -.00000379  00000+0 -10885-2 0  9990
2 47286  87.9067 189.7368 0002093  70.4816 289.6539 13.12442742133322
ONEWEB-0141             
1 47287U 20100AF  23262.31132816  .00000114  00000+0  28250-3 0  9996
2 47287  87.9067 189.8198 0001596  82.1070 278.0239 13.12445959133269
